[{"OBJECT_NAME":"SJ-11-07","OBJECT_ID":"2014-059A","EPOCH":"2026-03-09T21:45:47.816352","MEAN_MOTION":14.63627905,"ECCENTRICITY":0.00120468,"INCLINATION":98.0026,"RA_OF_ASC_NODE":141.1257,"ARG_OF_PERICENTER":102.2482,"MEAN_ANOMALY":258.0071,"EPHEMERIS_TYPE":0,"CLASSIFICATION_TYPE":"U","NORAD_CAT_ID":40261,"ELEMENT_SET_NO":999,"REV_AT_EPOCH":61039,"BSTAR":0.00017894302,"MEAN_MOTION_DOT":8.85e-6,"MEAN_MOTION_DDOT":0},{"OBJECT_NAME":"OAO 3 (COPERNICUS)","OBJECT_ID":"1972-065A","EPOCH":"2026-03-09T10:48:54.999648","MEAN_MOTION":14.59997993,"ECCENTRICITY":0.00064108,"INCLINATION":35.0059,"RA_OF_ASC_NODE":298.6786,"ARG_OF_PERICENTER":165.2541,"MEAN_ANOMALY":193.4015,"EPHEMERIS_TYPE":0,"CLASSIFICATION_TYPE":"U","NORAD_CAT_ID":6153,"ELEMENT_SET_NO":999,"REV_AT_EPOCH":84615,"BSTAR":0.0001017141,"MEAN_MOTION_DOT":4.75e-6,"MEAN_MOTION_DDOT":0}]
